GPS BIIR-2  (PRN 13)    
1 24876U 97035A   21253.16005050  .00000027  00000-0  00000-0 0  9990
2 24876  55.4781 166.6090 0052155  53.7184 306.8030  2.00562366177031
GPS BIIR-4  (PRN 20)    
1 26360U 00025A   21253.52593411  .00000003  00000-0  00000-0 0  9990
2 26360  53.8369  90.4530 0055021 173.0905 178.2288  2.00565891156354
GPS BIIR-8  (PRN 16)    
1 27663U 03005A   21253.32266184  .00000017  00000-0  00000-0 0  9995
2 27663  55.7113 284.1759 0120532  38.0408 145.5416  2.00554172136394
GPS BIIR-9  (PRN 21)    
1 27704U 03010A   21253.29152286 -.00000055  00000-0  00000-0 0  9993
2 27704  54.9034  34.6701 0242441 297.3947  79.5118  2.00567124135193
GPS BIIR-10 (PRN 22)    
1 28129U 03058A   21252.85140144  .00000009  00000-0  00000-0 0  9996
2 28129  53.6467  93.1257 0069343 307.4652  51.9831  2.00555488129864
GPS BIIR-11 (PRN 19)    
1 28190U 04009A   21251.36624046 -.00000065  00000-0  00000-0 0  9997
2 28190  56.1491 345.1601 0089410 111.3994 259.4395  2.00566688127994
GPS BIIR-13 (PRN 02)    
1 28474U 04045A   21253.46229800 -.00000054  00000-0  00000-0 0  9992
2 28474  55.2362  34.6981 0204845 274.2136  82.2421  2.00554453123518
GPS BIIRM-1 (PRN 17)    
1 28874U 05038A   21253.32542333 -.00000069  00000-0  00000-0 0  9999
2 28874  56.2270 342.5025 0137818 270.7182  98.4568  2.00565568116925
GPS BIIRM-2 (PRN 31)    
1 29486U 06042A   21253.18154490  .00000051  00000-0  00000-0 0  9992
2 29486  54.7584 220.4274 0101041  15.4672 163.6162  2.00571182109479
GPS BIIRM-3 (PRN 12)    
1 29601U 06052A   21252.88130714  .00000019  00000-0  00000-0 0  9995
2 29601  55.7107 283.1217 0080117  69.9033 291.0132  2.00562575108487
GPS BIIRM-4 (PRN 15)    
1 32260U 07047A   21253.18418547  .00000021  00000-0  00000-0 0  9995
2 32260  53.2466 152.1595 0134398  58.1853 303.1830  2.00562905101893
GPS BIIRM-5 (PRN 29)    
1 32384U 07062A   21250.87543375 -.00000063  00000-0  00000-0 0  9997
2 32384  56.3384 343.3248 0017924 138.4637 123.4166  2.00574627100549
GPS BIIRM-6 (PRN 07)    
1 32711U 08012A   21253.10112214  .00000050  00000-0  00000-0 0  9995
2 32711  54.5128 219.4296 0154508 228.3729 130.2690  2.00555568 98835
GPS BIIRM-8 (PRN 05)    
1 35752U 09043A   21250.34687274  .00000028  00000-0  00000-0 0  9999
2 35752  54.8620  96.9467 0059061  55.1491 128.1859  2.00574170 88383
GPS BIIF-1  (PRN 25)    
1 36585U 10022A   21253.41716220  .00000023  00000-0  00000-0 0  9993
2 36585  54.9872 278.8145 0096660  54.6822 308.7047  2.00575006 82681
GPS BIIF-2  (PRN 01)    
1 37753U 11036A   21253.29417462 -.00000046  00000-0  00000-0 0  9995
2 37753  56.4664  39.6314 0109002  50.1131 306.0454  2.00563625 74357
GPS BIIF-3  (PRN 24)    
1 38833U 12053A   21252.78335996  .00000044  00000-0  00000-0 0  9996
2 38833  53.5635 214.8562 0113734  42.4082 318.4365  2.00558290 64518
GPS BIIF-4  (PRN 27)    
1 39166U 13023A   21253.14615259 -.00000065  00000-0  00000-0 0  9992
2 39166  55.8663 338.9911 0093530  35.3343 325.3347  2.00567436 60966
GPS BIIF-5  (PRN 30)    
1 39533U 14008A   21253.14555528  .00000049  00000-0  00000-0 0  9997
2 39533  53.6645 220.3193 0054603 205.6854 154.0174  2.00565671 54768
GPS BIIF-6  (PRN 06)    
1 39741U 14026A   21253.42391313 -.00000047  00000-0  00000-0 0  9998
2 39741  56.4334  39.1534 0023626 299.2676  60.5038  2.00575754 53629
GPS BIIF-7  (PRN 09)    
1 40105U 14045A   21252.51603908  .00000027  00000-0  00000-0 0  9997
2 40105  54.6372 158.0225 0019095 105.4097 254.8569  2.00558587 51142
GPS BIIF-8  (PRN 03)    
1 40294U 14068A   21252.88256029  .00000018  00000-0  00000-0 0  9999
2 40294  55.6101  99.0363 0036758  53.7023 306.7225  2.00551701 50289
GPS BIIF-9  (PRN 26)    
1 40534U 15013A   21253.02131569  .00000024  00000-0  00000-0 0  9992
2 40534  53.8927 276.3075 0060235  14.6575 345.5601  2.00569394 46907
GPS BIIF-10 (PRN 08)    
1 40730U 15033A   21253.18100577 -.00000065  00000-0  00000-0 0  9990
2 40730  55.3719 337.9512 0064524   1.1675 358.9024  2.00566507 45075
GPS BIIF-11 (PRN 10)    
1 41019U 15062A   21252.73276055  .00000019  00000-0  00000-0 0  9996
2 41019  55.6018  98.8795 0070287 213.4312 146.2078  2.00563329 42901
GPS BIIF-12 (PRN 32)    
1 41328U 16007A   21252.82420321  .00000026  00000-0  00000-0 0  9994
2 41328  54.8622 158.6113 0052490 225.8503 133.7723  2.00558436 40910
GPS BIII-1  (PRN 04)    
1 43873U 18109A   21253.38991440  .00000024  00000-0  00000-0 0  9991
2 43873  55.0434 160.9489 0014117 194.5273 106.3015  2.00560364 20150
GPS BIII-2  (PRN 18)    
1 44506U 19056A   21253.13714729 -.00000047  00000-0  00000-0 0  9999
2 44506  55.5348  40.2200 0018855 175.4213 203.6738  2.00566582 15154
GPS BIII-3  (PRN 23)    
1 45854U 20041A   21253.48743753  .00000012  00000-0  00000-0 0  9990
2 45854  55.3168  97.4724 0015668 160.8500  53.6498  2.00563851  9122
GPS BIII-4  (PRN 14)    
1 46826U 20078A   21253.23227998  .00000019  00000-0  00000-0 0  9998
2 46826  54.7624 281.4575 0011000 189.9196 169.3546  2.00566490  6588
